QIANFAN-81              
1 63167U 25046J   25334.12044722  .00000101  00000+0  13684-3 0  9995
2 63167  88.9754 321.1790 0015402 150.7523 209.4494 13.50998204 45781
QIANFAN-82              
1 63168U 25046K   25334.08018707  .00000093  00000+0  12527-3 0  9990
2 63168  88.9754 321.2270 0013323 157.3781 202.7960 13.50972264 45765
QIANFAN-83              
1 63169U 25046L   25334.13600973  .00000072  00000+0  77055-4 0  9994
2 63169  88.9755 321.0223 0015040 144.4786 215.7376 13.61970474 45884
QIANFAN-84              
1 63170U 25046M   25334.10809646 -.00000088  00000+0 -15583-3 0  9997
2 63170  88.9750 321.3570 0016355 155.5480 204.6451 13.50984829 45690
QIANFAN-85              
1 63171U 25046N   25334.10475359  .00000130  00000+0  18281-3 0  9992
2 63171  88.9754 321.2289 0013709 156.3643 203.8141 13.50972272 45765
QIANFAN-86              
1 63172U 25046P   25334.11308230  .00000156  00000+0  22344-3 0  9990
2 63172  88.9756 321.0900 0011480 159.0567 201.1057 13.50972500 45845
QIANFAN-87              
1 63173U 25046Q   25334.08439600  .00000048  00000+0  55103-4 0  9993
2 63173  88.9752 321.2052 0012262 155.1414 205.0331 13.50971369 45771
QIANFAN-88              
1 63174U 25046R   25334.10078154  .00000107  00000+0  14686-3 0  9996
2 63174  88.9755 321.1576 0012417 163.0221 197.1348 13.50977085 45805
